[{"CCSDS_OMM_VERS":"2.0","COMMENT":"GENERATED VIA SPACE-TRACK.ORG API","CREATION_DATE":"2023-01-13T15:46:12","ORIGINATOR":"18 SPCS","OBJECT_NAME":"GALILEO-FM2","OBJECT_ID":"2011-060B","CENTER_NAME":"EARTH","REF_FRAME":"TEME","TIME_SYSTEM":"UTC","MEAN_ELEMENT_THEORY":"SGP4","EPOCH":"2023-01-13T11:14:58.231392","MEAN_MOTION":"1.70475376","ECCENTRICITY":"0.00047860","INCLINATION":"57.0628","RA_OF_ASC_NODE":"15.6326","ARG_OF_PERICENTER":"313.0268","MEAN_ANOMALY":"228.2436","EPHEMERIS_TYPE":"0","CLASSIFICATION_TYPE":"U","NORAD_CAT_ID":"37847","ELEMENT_SET_NO":"999","REV_AT_EPOCH":"6992","BSTAR":"0.00000000000000","MEAN_MOTION_DOT":"-0.00000057","MEAN_MOTION_DDOT":"0.0000000000000","SEMIMAJOR_AXIS":"29600.161","PERIOD":"844.697","APOAPSIS":"23236.192","PERIAPSIS":"23207.859","OBJECT_TYPE":"PAYLOAD","RCS_SIZE":"LARGE","COUNTRY_CODE":"ESA","LAUNCH_DATE":"2011-10-21","SITE":"FRGUI","DECAY_DATE":null,"FILE":"3743128","GP_ID":"222912756","TLE_LINE0":"0 GALILEO-FM2","TLE_LINE1":"1 37847U 11060B   23013.46872953 -.00000057  00000-0  00000+0 0  9992","TLE_LINE2":"2 37847  57.0628  15.6326 0004786 313.0268 228.2436  1.70475376 69923"},{"CCSDS_OMM_VERS":"2.0","COMMENT":"GENERATED VIA SPACE-TRACK.ORG API","CREATION_DATE":"2023-01-14T18:58:43","ORIGINATOR":"18 SPCS","OBJECT_NAME":"GALILEO-FM2","OBJECT_ID":"2011-060B","CENTER_NAME":"EARTH","REF_FRAME":"TEME","TIME_SYSTEM":"UTC","MEAN_ELEMENT_THEORY":"SGP4","EPOCH":"2023-01-14T08:22:12.628992","MEAN_MOTION":"1.70475338","ECCENTRICITY":"0.00048320","INCLINATION":"57.0631","RA_OF_ASC_NODE":"15.6087","ARG_OF_PERICENTER":"314.0104","MEAN_ANOMALY":"47.3510","EPHEMERIS_TYPE":"0","CLASSIFICATION_TYPE":"U","NORAD_CAT_ID":"37847","ELEMENT_SET_NO":"999","REV_AT_EPOCH":"6982","BSTAR":"0.00000000000000","MEAN_MOTION_DOT":"-0.00000055","MEAN_MOTION_DDOT":"0.0000000000000","SEMIMAJOR_AXIS":"29600.165","PERIOD":"844.697","APOAPSIS":"23236.333","PERIAPSIS":"23207.727","OBJECT_TYPE":"PAYLOAD","RCS_SIZE":"LARGE","COUNTRY_CODE":"ESA","LAUNCH_DATE":"2011-10-21","SITE":"FRGUI","DECAY_DATE":null,"FILE":"3744920","GP_ID":"223016658","TLE_LINE0":"0 GALILEO-FM2","TLE_LINE1":"1 37847U 11060B   23014.34875728 -.00000055  00000-0  00000-0 0  9992","TLE_LINE2":"2 37847  57.0631  15.6087 0004832 314.0104  47.3510  1.70475338 69823"},{"CCSDS_OMM_VERS":"2.0","COMMENT":"GENERATED VIA SPACE-TRACK.ORG API","CREATION_DATE":"2023-01-16T02:24:46","ORIGINATOR":"18 SPCS","OBJECT_NAME":"GALILEO-FM2","OBJECT_ID":"2011-060B","CENTER_NAME":"EARTH","REF_FRAME":"TEME","TIME_SYSTEM":"UTC","MEAN_ELEMENT_THEORY":"SGP4","EPOCH":"2023-01-15T19:35:57.410880","MEAN_MOTION":"1.70475276","ECCENTRICITY":"0.00048490","INCLINATION":"57.0634","RA_OF_ASC_NODE":"15.5689","ARG_OF_PERICENTER":"314.5743","MEAN_ANOMALY":"227.6544","EPHEMERIS_TYPE":"0","CLASSIFICATION_TYPE":"U","NORAD_CAT_ID":"37847","ELEMENT_SET_NO":"999","REV_AT_EPOCH":"6984","BSTAR":"0.00000000000000","MEAN_MOTION_DOT":"-0.00000053","MEAN_MOTION_DDOT":"0.0000000000000","SEMIMAJOR_AXIS":"29600.172","PERIOD":"844.697","APOAPSIS":"23236.390","PERIAPSIS":"23207.684","OBJECT_TYPE":"PAYLOAD","RCS_SIZE":"LARGE","COUNTRY_CODE":"ESA","LAUNCH_DATE":"2011-10-21","SITE":"FRGUI","DECAY_DATE":null,"FILE":"3748322","GP_ID":"223139420","TLE_LINE0":"0 GALILEO-FM2","TLE_LINE1":"1 37847U 11060B   23015.81663670 -.00000053  00000-0  00000-0 0  9994","TLE_LINE2":"2 37847  57.0634  15.5689 0004849 314.5743 227.6544  1.70475276 69848"},{"CCSDS_OMM_VERS":"2.0","COMMENT":"GENERATED VIA SPACE-TRACK.ORG API","CREATION_DATE":"2023-01-16T07:36:12","ORIGINATOR":"18 SPCS","OBJECT_NAME":"GALILEO-FM2","OBJECT_ID":"2011-060B","CENTER_NAME":"EARTH","REF_FRAME":"TEME","TIME_SYSTEM":"UTC","MEAN_ELEMENT_THEORY":"SGP4","EPOCH":"2023-01-15T19:35:57.410880","MEAN_MOTION":"1.70475276","ECCENTRICITY":"0.00048490","INCLINATION":"57.0634","RA_OF_ASC_NODE":"15.5689","ARG_OF_PERICENTER":"314.5743","MEAN_ANOMALY":"227.6544","EPHEMERIS_TYPE":"0","CLASSIFICATION_TYPE":"U","NORAD_CAT_ID":"37847","ELEMENT_SET_NO":"999","REV_AT_EPOCH":"6996","BSTAR":"0.00000000000000","MEAN_MOTION_DOT":"-0.00000053","MEAN_MOTION_DDOT":"0.0000000000000","SEMIMAJOR_AXIS":"29600.172","PERIOD":"844.697","APOAPSIS":"23236.390","PERIAPSIS":"23207.684","OBJECT_TYPE":"PAYLOAD","RCS_SIZE":"LARGE","COUNTRY_CODE":"ESA","LAUNCH_DATE":"2011-10-21","SITE":"FRGUI","DECAY_DATE":null,"FILE":"3748524","GP_ID":"223156928","TLE_LINE0":"0 GALILEO-FM2","TLE_LINE1":"1 37847U 11060B   23015.81663670 -.00000053  00000-0  00000+0 0  9993","TLE_LINE2":"2 37847  57.0634  15.5689 0004849 314.5743 227.6544  1.70475276 69961"},{"CCSDS_OMM_VERS":"2.0","COMMENT":"GENERATED VIA SPACE-TRACK.ORG API","CREATION_DATE":"2023-01-18T18:00:05","ORIGINATOR":"18 SPCS","OBJECT_NAME":"GALILEO-FM2","OBJECT_ID":"2011-060B","CENTER_NAME":"EARTH","REF_FRAME":"TEME","TIME_SYSTEM":"UTC","MEAN_ELEMENT_THEORY":"SGP4","EPOCH":"2023-01-18T03:47:45.342816","MEAN_MOTION":"1.70475191","ECCENTRICITY":"0.00048680","INCLINATION":"57.0641","RA_OF_ASC_NODE":"15.5053","ARG_OF_PERICENTER":"315.1639","MEAN_ANOMALY":"224.1073","EPHEMERIS_TYPE":"0","CLASSIFICATION_TYPE":"U","NORAD_CAT_ID":"37847","ELEMENT_SET_NO":"999","REV_AT_EPOCH":"6988","BSTAR":"0.00000000000000","MEAN_MOTION_DOT":"-0.00000055","MEAN_MOTION_DDOT":"0.0000000000000","SEMIMAJOR_AXIS":"29600.182","PERIOD":"844.698","APOAPSIS":"23236.457","PERIAPSIS":"23207.638","OBJECT_TYPE":"PAYLOAD","RCS_SIZE":"LARGE","COUNTRY_CODE":"ESA","LAUNCH_DATE":"2011-10-21","SITE":"FRGUI","DECAY_DATE":null,"FILE":"3753951","GP_ID":"223413232","TLE_LINE0":"0 GALILEO-FM2","TLE_LINE1":"1 37847U 11060B   23018.15816369 -.00000055  00000-0  00000-0 0  9991","TLE_LINE2":"2 37847  57.0641  15.5053 0004868 315.1639 224.1073  1.70475191 69882"},{"CCSDS_OMM_VERS":"2.0","COMMENT":"GENERATED VIA SPACE-TRACK.ORG API","CREATION_DATE":"2023-01-18T10:06:12","ORIGINATOR":"18 SPCS","OBJECT_NAME":"GALILEO-FM2","OBJECT_ID":"2011-060B","CENTER_NAME":"EARTH","REF_FRAME":"TEME","TIME_SYSTEM":"UTC","MEAN_ELEMENT_THEORY":"SGP4","EPOCH":"2023-01-18T03:47:45.342816","MEAN_MOTION":"1.70475191","ECCENTRICITY":"0.00048680","INCLINATION":"57.0641","RA_OF_ASC_NODE":"15.5053","ARG_OF_PERICENTER":"315.1639","MEAN_ANOMALY":"224.1073","EPHEMERIS_TYPE":"0","CLASSIFICATION_TYPE":"U","NORAD_CAT_ID":"37847","ELEMENT_SET_NO":"999","REV_AT_EPOCH":"7000","BSTAR":"0.00000000000000","MEAN_MOTION_DOT":"-0.00000055","MEAN_MOTION_DDOT":"0.0000000000000","SEMIMAJOR_AXIS":"29600.182","PERIOD":"844.698","APOAPSIS":"23236.457","PERIAPSIS":"23207.638","OBJECT_TYPE":"PAYLOAD","RCS_SIZE":"LARGE","COUNTRY_CODE":"ESA","LAUNCH_DATE":"2011-10-21","SITE":"FRGUI","DECAY_DATE":null,"FILE":"3753546","GP_ID":"223390528","TLE_LINE0":"0 GALILEO-FM2","TLE_LINE1":"1 37847U 11060B   23018.15816369 -.00000055  00000-0  00000+0 0  9990","TLE_LINE2":"2 37847  57.0641  15.5053 0004868 315.1639 224.1073  1.70475191 70008"},{"CCSDS_OMM_VERS":"2.0","COMMENT":"GENERATED VIA SPACE-TRACK.ORG API","CREATION_DATE":"2023-01-19T03:06:34","ORIGINATOR":"18 SPCS","OBJECT_NAME":"GALILEO-FM2","OBJECT_ID":"2011-060B","CENTER_NAME":"EARTH","REF_FRAME":"TEME","TIME_SYSTEM":"UTC","MEAN_ELEMENT_THEORY":"SGP4","EPOCH":"2023-01-18T17:49:42.762720","MEAN_MOTION":"1.70475175","ECCENTRICITY":"0.00048740","INCLINATION":"57.0643","RA_OF_ASC_NODE":"15.4894","ARG_OF_PERICENTER":"315.3321","MEAN_ANOMALY":"222.7766","EPHEMERIS_TYPE":"0","CLASSIFICATION_TYPE":"U","NORAD_CAT_ID":"37847","ELEMENT_SET_NO":"999","REV_AT_EPOCH":"6989","BSTAR":"0.00000000000000","MEAN_MOTION_DOT":"-0.00000056","MEAN_MOTION_DDOT":"0.0000000000000","SEMIMAJOR_AXIS":"29600.184","PERIOD":"844.698","APOAPSIS":"23236.476","PERIAPSIS":"23207.622","OBJECT_TYPE":"PAYLOAD","RCS_SIZE":"LARGE","COUNTRY_CODE":"ESA","LAUNCH_DATE":"2011-10-21","SITE":"FRGUI","DECAY_DATE":null,"FILE":"3754254","GP_ID":"223446406","TLE_LINE0":"0 GALILEO-FM2","TLE_LINE1":"1 37847U 11060B   23018.74285605 -.00000056  00000-0  00000-0 0  9990","TLE_LINE2":"2 37847  57.0643  15.4894 0004874 315.3321 222.7766  1.70475175 69899"},{"CCSDS_OMM_VERS":"2.0","COMMENT":"GENERATED VIA SPACE-TRACK.ORG API","CREATION_DATE":"2023-01-25T23:12:49","ORIGINATOR":"18 SPCS","OBJECT_NAME":"GALILEO-FM2","OBJECT_ID":"2011-060B","CENTER_NAME":"EARTH","REF_FRAME":"TEME","TIME_SYSTEM":"UTC","MEAN_ELEMENT_THEORY":"SGP4","EPOCH":"2023-01-21T02:14:42.648288","MEAN_MOTION":"1.70475145","ECCENTRICITY":"0.00049550","INCLINATION":"57.0650","RA_OF_ASC_NODE":"15.4254","ARG_OF_PERICENTER":"316.8279","MEAN_ANOMALY":"223.9490","EPHEMERIS_TYPE":"0","CLASSIFICATION_TYPE":"U","NORAD_CAT_ID":"37847","ELEMENT_SET_NO":"999","REV_AT_EPOCH":"6993","BSTAR":"0.00000000000000","MEAN_MOTION_DOT":"-0.00000065","MEAN_MOTION_DDOT":"0.0000000000000","SEMIMAJOR_AXIS":"29600.188","PERIOD":"844.698","APOAPSIS":"23236.719","PERIAPSIS":"23207.386","OBJECT_TYPE":"PAYLOAD","RCS_SIZE":"LARGE","COUNTRY_CODE":"ESA","LAUNCH_DATE":"2011-10-21","SITE":"FRGUI","DECAY_DATE":null,"FILE":"3761297","GP_ID":"223679318","TLE_LINE0":"0 GALILEO-FM2","TLE_LINE1":"1 37847U 11060B   23021.09354917 -.00000065  00000-0  00000-0 0  9995","TLE_LINE2":"2 37847  57.0650  15.4254 0004955 316.8279 223.9490  1.70475145 69934"}]